OSCAR 7 (AO-7)          
1 07530U 74089B   26182.98438983 -.00000040  00000+0  40824-4 0  9990
2 07530 101.9899 196.3852 0012656 102.7339 314.3208 12.53698356362373
PHASE 3B (AO-10)        
1 14129U 83058B   26182.45083748 -.00000048  00000+0  00000+0 0  9990
2 14129  25.9245 217.2087 6005973 119.5898 312.7847  2.05870235295789
UOSAT 2 (UO-11)         
1 14781U 84021B   26183.18901879  .00001666  00000+0  17486-3 0  9996
2 14781  97.8066 148.5969 0008777 127.3449 232.8570 14.90822336259360
LUSAT (LO-19)           
1 20442U 90005G   26183.04268225  .00000120  00000+0  59354-4 0  9997
2 20442  98.8845 205.2573 0011960 157.6039 202.5670 14.34127598904524
EYESAT A (AO-27)        
1 22825U 93061C   26183.17332940  .00000128  00000+0  65584-4 0  9999
2 22825  98.6875 250.5810 0009348  60.9529 299.2589 14.30946281709143
ITAMSAT (IO-26)         
1 22826U 93061D   26183.14826960  .00000118  00000+0  61280-4 0  9995
2 22826  98.6822 250.4751 0009661  45.6293 314.5680 14.31373513709455
RADIO ROSTO (RS15)      
1 23439U 94085A   26183.19312674 -.00000019  00000+0  67978-3 0  9990
2 23439  64.8179 278.9481 0156445   1.1004 359.0236 11.27583453297597
JAS-2 (FO-29)           
1 24278U 96046B   26183.17175736 -.00000028  00000+0  52747-5 0  9995
2 24278  98.5226  29.9902 0350799  57.6602 305.7995 13.53274938475196
TECHSAT 1B (GO-32)      
1 25397U 98043D   26183.23686333  .00000060  00000+0  46029-4 0  9994
2 25397  99.0074 176.3754 0001758 135.7295 224.4024 14.24431320453478
ISS (ZARYA)             
1 25544U 98067A   26182.50817465  .00006185  00000+0  11827-3 0  9996
2 25544  51.6311 229.1989 0004224 255.0896 104.9625 15.49503254573972
PCSAT (NO-44)           
1 26931U 01043C   26183.24589311  .00000103  00000+0  69472-4 0  9997
2 26931  67.0489 205.3231 0006019 265.5533  94.4881 14.31961081292605
SAUDISAT 1C (SO-50)     
1 27607U 02058C   26182.99026468  .00000980  00000+0  13277-3 0  9999
2 27607  64.5520  83.1849 0074907 259.7114  99.5540 14.83077510266658
CUTE-1 (CO-55)          
1 27844U 03031E   26182.99996152  .00000303  00000+0  15002-3 0  9997
2 27844  98.6736 191.3725 0010408 137.1021 223.0971 14.24344824193780
CUBESAT XI-IV (CO-57)   
1 27848U 03031J   26183.27698888  .00000271  00000+0  13794-3 0  9998
2 27848  98.6769 191.3466 0009960 153.7682 206.4003 14.23628936193521
MOZHAETS 4 (RS22)       
1 27939U 03042A   26183.29546400  .00000835  00000+0  13682-3 0  9997
2 27939  98.3466   8.0808 0010316 216.0341 247.3165 14.73493036217772
CUBESAT XI-V            
1 28895U 05043F   26182.94295542  .00001588  00000+0  25710-3 0  9992
2 28895  98.3000 338.8758 0014656 154.4297 205.7638 14.72672414103924
CUTE-1.7+APD II (CO-65) 
1 32785U 08021C   26183.22979959  .00006657  00000+0  41804-3 0  9991
2 32785  97.8282 164.9629 0008190 349.4022  10.7033 15.09596776987465
SEEDS II (CO-66)        
1 32791U 08021J   26182.95274746  .00022706  00000+0  70777-3 0  9993
2 32791  97.7519 181.5604 0001376 189.0732 171.0485 15.33260854989553
YUBILEINY (RS30)        
1 32953U 08025A   26183.22833720 -.00000017  00000+0 -19413-3 0  9994
2 32953  82.5045 346.0818 0018508 279.0983  80.8003 12.43180070821565
KKS-1 (KISEKI)          
1 33499U 09002H   26183.30138296  .00001548  00000+0  19657-3 0  9999
2 33499  98.1182 105.9831 0006543 236.0416 124.0176 14.83163071938438
SWISSCUBE               
1 35932U 09051B   26183.28877764  .00001164  00000+0  23926-3 0  9992
2 35932  98.4025  91.4397 0007061 154.9157 205.2388 14.62510844891361
BEESAT-1                
1 35933U 09051C   26183.30608930  .00000968  00000+0  20391-3 0  9997
2 35933  98.3950  91.0608 0005269 165.6666 194.4685 14.61745142891393
ITUPSAT1                
1 35935U 09051E   26182.96766707  .00000816  00000+0  17832-3 0  9995
2 35935  98.4034  89.8935 0007122 182.8141 177.3019 14.60462418890892
XIWANG-1 (HOPE-1)       
1 36122U 09072B   26183.21570721  .00000349  00000+0  10289-2 0  9994
2 36122 100.4034 136.8086 0007174 194.8268 165.2636 13.16441486794981
O/OREOS (USA 219)       
1 37224U 10062C   26182.99615342  .00002469  00000+0  23818-3 0  9990
2 37224  71.9706  46.7932 0013187  31.5308 328.6650 14.93806477118853
JUGNU                   
1 37839U 11058B   26182.78363549  .00000389  00000+0  63587-4 0  9991
2 37839  19.9591 219.7499 0018348 237.3711 278.2214 14.13780252761097
SRMSAT                  
1 37841U 11058D   26182.77623690  .00000384  00000+0  64524-4 0  9996
2 37841  19.9733 331.1680 0011804   4.9086  23.3871 14.11578614759889
STRAND-1                
1 39090U 13009E   26183.23351809  .00000332  00000+0  12610-3 0  9995
2 39090  98.3927   3.0978 0008604 177.8958 182.2266 14.37172527699225
ZACUBE-1 (TSHEPISOSAT)  
1 39417U 13066B   26183.13779984  .00003761  00000+0  29186-3 0  9993
2 39417  97.8041 145.5507 0042890 197.2821 162.6946 15.01270925682973
GOMX-1                  
1 39430U 13066Q   26183.23425780  .00001356  00000+0  20867-3 0  9996
2 39430  97.6468  22.7470 0129435  29.7255 331.1226 14.69508555672121
